CCSDS_OMM_VERS,COMMENT,CREATION_DATE,ORIGINATOR,OBJECT_NAME,OBJECT_ID,CENTER_NAME,REF_FRAME,TIME_SYSTEM,MEAN_ELEMENT_THEORY,EPOCH,MEAN_MOTION,ECCENTRICITY,INCLINATION,RA_OF_ASC_NODE,ARG_OF_PERICENTER,MEAN_ANOMALY,EPHEMERIS_TYPE,CLASSIFICATION_TYPE,NORAD_CAT_ID,ELEMENT_SET_NO,REV_AT_EPOCH,BSTAR,MEAN_MOTION_DOT,MEAN_MOTION_DDOT,SEMIMAJOR_AXIS,PERIOD,APOAPSIS,PERIAPSIS,OBJECT_TYPE,RCS_SIZE,COUNTRY_CODE,LAUNCH_DATE,SITE,DECAY_DATE,FILE,GP_ID,TLE_LINE0,TLE_LINE1,TLE_LINE2
"2.0","GENERATED VIA SPACE-TRACK.ORG API","2023-01-03T02:40:54","18 SPCS","CZ-3B R/B","2022-178B","EARTH","TEME","UTC","SGP4","2023-01-02T06:53:02.098176","1.99156677","0.75209760","51.3313","117.8209","226.5341","39.6962","0","U","54879","999","11","0.00150440000000","0.00004521","0.0000000000000","26685.290","723.049","40377.098","237.212","ROCKET BODY","","PRC","2022-12-29","XSC","","3729873","222067632","0 CZ-3B R/B","1 54879U 22178B   23002.28682984  .00004521  00000-0  15044-2 0  9995","2 54879  51.3313 117.8209 7520976 226.5341  39.6962  1.99156677   116"
"2.0","GENERATED VIA SPACE-TRACK.ORG API","2023-01-02T17:41:18","18 SPCS","TBA - TO BE ASSIGNED","UNKNOWN","EARTH","TEME","UTC","SGP4","2023-01-02T09:08:07.886112","2.15283857","0.70158960","19.6565","36.9447","82.8961","345.5196","0","U","83975","999","5918","0.00000000000000","-0.00000305","0.0000000000000","25335.386","668.884","36732.295","1182.208","UNKNOWN","","","","","","3729582","222008228","0 TBA - TO BE ASSIGNED","1 83975U          23002.38064683 -.00000305 +00000+0 +00000+0 0  9994","2 83975  19.6565  36.9447 7015896  82.8961 345.5196  2.15283857 59186"
"2.0","GENERATED VIA SPACE-TRACK.ORG API","2023-01-01T17:54:27","18 SPCS","TBA - TO BE ASSIGNED","UNKNOWN","EARTH","TEME","UTC","SGP4","2023-01-01T10:50:37.491648","2.15283731","0.70158840","19.6544","37.2133","82.4028","345.6694","0","U","83975","999","5916","0.00000000000000","-0.00000292","0.0000000000000","25335.396","668.885","36732.281","1182.241","UNKNOWN","","","","","","3728758","221909633","0 TBA - TO BE ASSIGNED","1 83975U          23001.45182282 -.00000292 +00000+0 +00000+0 0  9992","2 83975  19.6544  37.2133 7015884  82.4028 345.6694  2.15283731 59169"
"2.0","GENERATED VIA SPACE-TRACK.ORG API","2023-01-01T17:54:27","18 SPCS","TBA - TO BE ASSIGNED","2012-008","EARTH","TEME","UTC","SGP4","2023-01-01T15:07:49.444032","2.69615425","0.69325390","20.9460","118.0909","15.4415","357.8192","0","U","84170","999","6490","0.00389480000000","0.00006259","0.0000000000000","21805.800","534.094","30544.620","310.709","UNKNOWN","","","","","","3728758","221909700","0 TBA - TO BE ASSIGNED","1 84170U 12008    23001.63043338 +.00006259 +00000+0 +38948-2 0  9992","2 84170  20.9460 118.0909 6932539  15.4415 357.8192  2.69615425 64902"
"2.0","GENERATED VIA SPACE-TRACK.ORG API","2023-01-02T17:41:18","18 SPCS","TBA - TO BE ASSIGNED","1979-104","EARTH","TEME","UTC","SGP4","2023-01-02T14:56:57.446304","2.82748173","0.68275190","20.1855","127.1437","109.0316","332.0907","0","U","84232","999","7250","0.00966370000000","0.00013857","0.0000000000000","21125.255","509.287","29170.429","323.812","UNKNOWN","","","","","","3729582","222008392","0 TBA - TO BE ASSIGNED","1 84232U 79104    23002.62288711 +.00013857 +00000+0 +96637-2 0  9998","2 84232  20.1855 127.1437 6827519 109.0316 332.0907  2.82748173 72505"
"2.0","GENERATED VIA SPACE-TRACK.ORG API","2023-01-01T17:54:27","18 SPCS","TBA - TO BE ASSIGNED","1979-104","EARTH","TEME","UTC","SGP4","2023-01-01T13:29:53.722176","2.82716711","0.68278320","20.1836","127.6852","108.0682","332.7115","0","U","84232","999","7247","0.01064300000000","0.00015242","0.0000000000000","21126.823","509.344","29173.727","323.648","UNKNOWN","","","","","","3728758","221909620","0 TBA - TO BE ASSIGNED","1 84232U 79104    23001.56242734 +.00015242 +00000+0 +10643-1 0  9997","2 84232  20.1836 127.6852 6827832 108.0682 332.7115  2.82716711 72470"
"2.0","GENERATED VIA SPACE-TRACK.ORG API","2023-01-04T01:33:21","18 SPCS","TBA - TO BE ASSIGNED","1979-104","EARTH","TEME","UTC","SGP4","2023-01-02T23:25:56.025696","2.82758393","0.68274380","20.1861","126.9629","109.3547","331.8781","0","U","84232","999","7251","0.00963270000000","0.00013833","0.0000000000000","21124.746","509.269","29169.401","323.822","UNKNOWN","","","","","","3730922","222090253","0 TBA - TO BE ASSIGNED","1 84232U 79104    23002.97634289 +.00013833 +00000+0 +96327-2 0  9991","2 84232  20.1861 126.9629 6827438 109.3547 331.8781  2.82758393 72514"
"2.0","GENERATED VIA SPACE-TRACK.ORG API","2023-01-01T22:36:13","18 SPCS","TBA - TO BE ASSIGNED","UNKNOWN","EARTH","TEME","UTC","SGP4","2023-01-01T13:42:28.643040","2.59108461","0.69474430","9.0978","106.7327","211.1669","76.6762","0","U","84236","999","17458","0.01067100000000","0.00002796","0.0000000000000","22391.376","555.752","31569.521","456.960","UNKNOWN","","","","","","3728783","221963042","0 TBA - TO BE ASSIGNED","1 84236U          23001.57116485  .00002796  00000-0  10671-1 0  9996","2 84236   9.0978 106.7327 6947443 211.1669  76.6762  2.59108461174582"
"2.0","GENERATED VIA SPACE-TRACK.ORG API","2023-01-02T17:41:18","18 SPCS","TBA - TO BE ASSIGNED","UNKNOWN","EARTH","TEME","UTC","SGP4","2023-01-01T16:02:13.240320","2.84001740","0.68470590","21.0305","36.1592","168.7691","222.5117","0","U","84346","999","5541","0.00145160000000","0.00005693","0.0000000000000","21063.046","507.039","29106.903","262.919","UNKNOWN","","","","","","3729582","222008363","0 TBA - TO BE ASSIGNED","1 84346U          23001.66820880 +.00005693 +00000+0 +14516-2 0  9990","2 84346  21.0305  36.1592 6847059 168.7691 222.5117  2.84001740 55412"
"2.0","GENERATED VIA SPACE-TRACK.ORG API","2023-01-01T17:54:27","18 SPCS","TBA - TO BE ASSIGNED","UNKNOWN","EARTH","TEME","UTC","SGP4","2023-01-01T07:36:46.963872","2.83998345","0.68471330","21.0292","36.3365","168.4514","223.6521","0","U","84346","999","5540","0.00147370000000","0.00005771","0.0000000000000","21063.214","507.045","29107.341","262.816","UNKNOWN","","","","","","3728758","221909392","0 TBA - TO BE ASSIGNED","1 84346U          23001.31721023 +.00005771 +00000+0 +14737-2 0  9993","2 84346  21.0292  36.3365 6847133 168.4514 223.6521  2.83998345 55406"
"2.0","GENERATED VIA SPACE-TRACK.ORG API","2023-01-04T01:33:21","18 SPCS","TBA - TO BE ASSIGNED","UNKNOWN","EARTH","TEME","UTC","SGP4","2023-01-02T15:57:13.368384","2.03735021","0.66882600","18.6444","232.7361","357.6158","0.5332","0","U","84353","999","4620","0.00000000000000","-0.00000008","0.0000000000000","26283.995","706.800","37485.280","2326.441","UNKNOWN","","","","","","3730922","222090002","0 TBA - TO BE ASSIGNED","1 84353U          23002.66473806 -.00000008 +00000+0 +00000+0 0  9997","2 84353  18.6444 232.7361 6688260 357.6158   0.5332  2.03735021 46205"
"2.0","GENERATED VIA SPACE-TRACK.ORG API","2023-01-01T17:54:27","18 SPCS","TBA - TO BE ASSIGNED","UNKNOWN","EARTH","TEME","UTC","SGP4","2023-01-01T04:36:56.034144","2.03735545","0.66877780","18.6464","233.0593","357.0183","0.6042","0","U","84353","999","4617","0.00000000000000","-0.00000115","0.0000000000000","26283.950","706.799","37483.938","2327.693","UNKNOWN","","","","","","3728758","221909705","0 TBA - TO BE ASSIGNED","1 84353U          23001.19231521 -.00000115 +00000+0 +00000+0 0  9999","2 84353  18.6464 233.0593 6687778 357.0183   0.6042  2.03735545 46179"
"2.0","GENERATED VIA SPACE-TRACK.ORG API","2023-01-01T17:54:27","18 SPCS","TBA - TO BE ASSIGNED","UNKNOWN","EARTH","TEME","UTC","SGP4","2023-01-01T03:43:52.176000","2.35620047","0.71374300","20.6261","22.1654","9.0360","359.0513","0","U","84434","999","6051","0.00631730000000","0.00001535","0.0000000000000","23855.783","611.153","34504.547","450.750","UNKNOWN","","","","","","3728758","221909436","0 TBA - TO BE ASSIGNED","1 84434U          23001.15546500 +.00001535 +00000+0 +63173-2 0  9990","2 84434  20.6261  22.1654 7137430   9.0360 359.0513  2.35620047 60512"
"2.0","GENERATED VIA SPACE-TRACK.ORG API","2023-01-02T17:41:18","18 SPCS","TBA - TO BE ASSIGNED","UNKNOWN","EARTH","TEME","UTC","SGP4","2023-01-02T09:46:34.620096","3.83780194","0.61494050","2.8838","269.8123","315.8763","9.1083","0","U","84452","999","11325","0.00106470000000","0.00007615","0.0000000000000","17232.441","375.215","21451.232","257.380","UNKNOWN","","","","","","3729582","222008379","0 TBA - TO BE ASSIGNED","1 84452U          23002.40734514 +.00007615 +00000+0 +10647-2 0  9996","2 84452   2.8838 269.8123 6149405 315.8763   9.1083  3.83780194113253"
"2.0","GENERATED VIA SPACE-TRACK.ORG API","2023-01-01T17:54:27","18 SPCS","TBA - TO BE ASSIGNED","UNKNOWN","EARTH","TEME","UTC","SGP4","2023-01-01T08:46:04.600992","3.83764007","0.61496110","2.8854","270.6136","314.2504","9.4857","0","U","84452","999","11321","0.00100740000000","0.00007182","0.0000000000000","17232.926","375.231","21452.370","257.212","UNKNOWN","","","","","","3728758","221909583","0 TBA - TO BE ASSIGNED","1 84452U          23001.36533103 +.00007182 +00000+0 +10074-2 0  9994","2 84452   2.8854 270.6136 6149611 314.2504   9.4857  3.83764007113213"
"2.0","GENERATED VIA SPACE-TRACK.ORG API","2023-01-07T17:35:10","18 SPCS","TBA - TO BE ASSIGNED","UNKNOWN","EARTH","TEME","UTC","SGP4","2023-01-01T19:11:52.881504","2.28499963","0.72053650","2.1448","82.1575","288.1820","10.1774","0","U","84565","999","3896","0.00332100000000","0.00001014","0.0000000000000","24348.811","630.197","35514.882","426.469","UNKNOWN","","","","","","3735160","222368172","0 TBA - TO BE ASSIGNED","1 84565U          23001.79991761 +.00001014 +00000-0 +33210-2 0  9990","2 84565 002.1448 082.1575 7205365 288.1820 010.1774 02.28499963038962"
